{
  "norad_id": 48129,
  "name": "STARLINK-2471",
  "history": [
    {
      "epoch": "2026-03-28T07:57:20.792160Z",
      "apogee_km": 476.100481730753,
      "perigee_km": 474.38535487239824,
      "latitude_deg": -3.340715289673751e-05,
      "longitude_deg": 133.89177331067376,
      "height_km": 476.01153384034814,
      "semi_major_axis_km": 6853.379918301575,
      "eccentricity": 0.00012513,
      "inclination_deg": 53.1589,
      "raan_deg": 78.9819,
      "arg_perigee_deg": 81.322,
      "mean_anomaly_deg": 278.7922,
      "mean_motion_rev_day": 15.30190673
    },
    {
      "epoch": "2026-03-29T04:20:02.325408Z",
      "apogee_km": 476.0441657304982,
      "perigee_km": 474.3020543005314,
      "latitude_deg": 1.5574558173795487e-05,
      "longitude_deg": -176.56234865036578,
      "height_km": 475.94559533772684,
      "semi_major_axis_km": 6853.3101100155145,
      "eccentricity": 0.0001271,
      "inclination_deg": 53.159,
      "raan_deg": 75.0377,
      "arg_perigee_deg": 81.7158,
      "mean_anomaly_deg": 278.3987,
      "mean_motion_rev_day": 15.30214053
    },
    {
      "epoch": "2026-03-30T05:24:53.715744Z",
      "apogee_km": 475.8879524524682,
      "perigee_km": 474.61733401261426,
      "latitude_deg": -1.819050502146502e-05,
      "longitude_deg": 161.33816279235506,
      "height_km": 476.3184802322862,
      "semi_major_axis_km": 6853.389643232541,
      "eccentricity": 9.27e-05,
      "inclination_deg": 53.1594,
      "raan_deg": 70.1824,
      "arg_perigee_deg": 105.2706,
      "mean_anomaly_deg": 254.8397,
      "mean_motion_rev_day": 15.30187416
    },
    {
      "epoch": "2026-03-30T05:24:53.716608Z",
      "apogee_km": 475.8879524524682,
      "perigee_km": 474.61733401261426,
      "latitude_deg": -1.819050502575412e-05,
      "longitude_deg": 161.3381591824993,
      "height_km": 476.31848023228315,
      "semi_major_axis_km": 6853.389643232541,
      "eccentricity": 9.27e-05,
      "inclination_deg": 53.1594,
      "raan_deg": 70.1824,
      "arg_perigee_deg": 105.2706,
      "mean_anomaly_deg": 254.8397,
      "mean_motion_rev_day": 15.30187416
    },
    {
      "epoch": "2026-03-31T08:03:46.469664Z",
      "apogee_km": 475.8441759903417,
      "perigee_km": 474.29932567372816,
      "latitude_deg": 3.739947356418791e-05,
      "longitude_deg": 115.36630362912273,
      "height_km": 476.2447621037175,
      "semi_major_axis_km": 6853.208750832035,
      "eccentricity": 0.00011271,
      "inclination_deg": 53.1603,
      "raan_deg": 65.0247,
      "arg_perigee_deg": 110.8245,
      "mean_anomaly_deg": 249.2877,
      "mean_motion_rev_day": 15.30248001
    },
    {
      "epoch": "2026-04-01T04:26:29.330016Z",
      "apogee_km": 476.035514980299,
      "perigee_km": 474.52762582643936,
      "latitude_deg": 7.287807339701045e-05,
      "longitude_deg": 164.90562819411957,
      "height_km": 476.1022400273435,
      "semi_major_axis_km": 6853.418570403369,
      "eccentricity": 0.00011001,
      "inclination_deg": 53.1611,
      "raan_deg": 61.0795,
      "arg_perigee_deg": 84.0813,
      "mean_anomaly_deg": 276.0314,
      "mean_motion_rev_day": 15.30177728
    },
    {
      "epoch": "2026-04-02T21:11:53.378016Z",
      "apogee_km": 476.27066645314426,
      "perigee_km": 474.1721681057734,
      "latitude_deg": -1.4100571166774047e-05,
      "longitude_deg": -96.00445235523073,
      "height_km": 476.10958027469485,
      "semi_major_axis_km": 6853.358417279459,
      "eccentricity": 0.0001531,
      "inclination_deg": 53.162,
      "raan_deg": 53.1935,
      "arg_perigee_deg": 89.4667,
      "mean_anomaly_deg": 270.6509,
      "mean_motion_rev_day": 15.30197874
    },
    {
      "epoch": "2026-04-02T21:11:53.378880Z",
      "apogee_km": 476.27080352031317,
      "perigee_km": 474.1720310386054,
      "latitude_deg": -1.5946007884384534e-05,
      "longitude_deg": -96.00445733991404,
      "height_km": 476.10957899899785,
      "semi_major_axis_km": 6853.358417279459,
      "eccentricity": 0.00015312,
      "inclination_deg": 53.162,
      "raan_deg": 53.1935,
      "arg_perigee_deg": 89.4667,
      "mean_anomaly_deg": 270.6509,
      "mean_motion_rev_day": 15.30197874
    },
    {
      "epoch": "2026-04-03T14:26:28.278816Z",
      "apogee_km": 476.02986735050035,
      "perigee_km": 474.3891761931882,
      "latitude_deg": -6.85537728866819e-05,
      "longitude_deg": 1.3046411121891053,
      "height_km": 475.9683799764656,
      "semi_major_axis_km": 6853.346521771844,
      "eccentricity": 0.0001197,
      "inclination_deg": 53.1594,
      "raan_deg": 49.8562,
      "arg_perigee_deg": 80.2242,
      "mean_anomaly_deg": 279.8893,
      "mean_motion_rev_day": 15.30201858
    },
    {
      "epoch": "2026-04-04T04:32:57.129504Z",
      "apogee_km": 476.07816160597395,
      "perigee_km": 474.3564619357712,
      "latitude_deg": 6.61800643503477e-06,
      "longitude_deg": 146.37479015863062,
      "height_km": 476.28495470677575,
      "semi_major_axis_km": 6853.354311770872,
      "eccentricity": 0.00012561,
      "inclination_deg": 53.162,
      "raan_deg": 47.1259,
      "arg_perigee_deg": 101.3424,
      "mean_anomaly_deg": 258.7718,
      "mean_motion_rev_day": 15.30199249
    },
    {
      "epoch": "2026-04-05T13:28:04.792512Z",
      "apogee_km": 476.22758843202246,
      "perigee_km": 474.3264513829008,
      "latitude_deg": 4.9230983688386045e-06,
      "longitude_deg": 4.869831037060251,
      "height_km": 476.26791128634835,
      "semi_major_axis_km": 6853.414019907462,
      "eccentricity": 0.0001387,
      "inclination_deg": 53.1618,
      "raan_deg": 40.7548,
      "arg_perigee_deg": 95.6016,
      "mean_anomaly_deg": 264.5143,
      "mean_motion_rev_day": 15.30179252
    },
    {
      "epoch": "2026-04-05T19:44:18.191328Z",
      "apogee_km": 476.14060418852387,
      "perigee_km": 474.48481073920084,
      "latitude_deg": -3.005543940218215e-05,
      "longitude_deg": -90.65873959666965,
      "height_km": 476.51834535583333,
      "semi_major_axis_km": 6853.449707463862,
      "eccentricity": 0.0001208,
      "inclination_deg": 53.1627,
      "raan_deg": 39.5396,
      "arg_perigee_deg": 111.7725,
      "mean_anomaly_deg": 248.3404,
      "mean_motion_rev_day": 15.301673
    },
    {
      "epoch": "2026-04-06T05:08:37.527936Z",
      "apogee_km": 476.138339093608,
      "perigee_km": 474.3856508346362,
      "latitude_deg": 1.0766354596370234e-06,
      "longitude_deg": 126.05674867278275,
      "height_km": 476.39496721154853,
      "semi_major_axis_km": 6853.398994964122,
      "eccentricity": 0.00012787,
      "inclination_deg": 53.1624,
      "raan_deg": 37.7219,
      "arg_perigee_deg": 105.5275,
      "mean_anomaly_deg": 254.5867,
      "mean_motion_rev_day": 15.30184284
    },
    {
      "epoch": "2026-04-07T04:39:24.952320Z",
      "apogee_km": 476.18939439834867,
      "perigee_km": 474.27237033429265,
      "latitude_deg": -2.5714515531721453e-05,
      "longitude_deg": 127.84307287447079,
      "height_km": 476.2689429398159,
      "semi_major_axis_km": 6853.36788236632,
      "eccentricity": 0.00013986,
      "inclination_deg": 53.1612,
      "raan_deg": 33.1715,
      "arg_perigee_deg": 98.3995,
      "mean_anomaly_deg": 261.7164,
      "mean_motion_rev_day": 15.30194704
    },
    {
      "epoch": "2026-04-08T12:00:26.771040Z",
      "apogee_km": 476.0542643235449,
      "perigee_km": 474.2371849419351,
      "latitude_deg": 6.61566344279438e-06,
      "longitude_deg": 10.230195554259902,
      "height_km": 475.8450903850121,
      "semi_major_axis_km": 6853.28272463274,
      "eccentricity": 0.00013257,
      "inclination_deg": 53.1603,
      "raan_deg": 27.1037,
      "arg_perigee_deg": 77.3658,
      "mean_anomaly_deg": 282.7491,
      "mean_motion_rev_day": 15.30223225
    },
    {
      "epoch": "2026-04-09T11:31:16.516992Z",
      "apogee_km": 476.0389176824465,
      "perigee_km": 474.5735144539867,
      "latitude_deg": 1.9081319606865884e-05,
      "longitude_deg": 12.005948898278307,
      "height_km": 476.14331511268983,
      "semi_major_axis_km": 6853.443216068216,
      "eccentricity": 0.00010691,
      "inclination_deg": 53.1592,
      "raan_deg": 22.5524,
      "arg_perigee_deg": 85.2123,
      "mean_anomaly_deg": 274.9,
      "mean_motion_rev_day": 15.30169474
    },
    {
      "epoch": "2026-04-10T11:01:49.899648Z",
      "apogee_km": 475.64139981149674,
      "perigee_km": 473.22655379927073,
      "latitude_deg": -3.5762558488146985e-05,
      "longitude_deg": 13.849519495940644,
      "height_km": 475.03392006852187,
      "semi_major_axis_km": 6852.570976805383,
      "eccentricity": 0.0001762,
      "inclination_deg": 53.1611,
      "raan_deg": 18.0006,
      "arg_perigee_deg": 75.7236,
      "mean_anomaly_deg": 284.396,
      "mean_motion_rev_day": 15.30461638
    },
    {
      "epoch": "2026-04-11T01:07:51.437568Z",
      "apogee_km": 473.9887071517842,
      "perigee_km": 472.75255814470256,
      "latitude_deg": 6.689482910886085e-05,
      "longitude_deg": 159.03150264822972,
      "height_km": 474.002784310129,
      "semi_major_axis_km": 6851.507632648243,
      "eccentricity": 9.021e-05,
      "inclination_deg": 53.1599,
      "raan_deg": 15.268,
      "arg_perigee_deg": 64.4309,
      "mean_anomaly_deg": 295.6786,
      "mean_motion_rev_day": 15.3081794
    },
    {
      "epoch": "2026-04-13T06:00:02.000160Z",
      "apogee_km": 471.5504653823664,
      "perigee_km": 469.98124476021167,
      "latitude_deg": -53.19299982281584,
      "longitude_deg": -11.092925740479474,
      "height_km": 490.04580725058577,
      "semi_major_axis_km": 6848.902855071288,
      "eccentricity": 0.00011456,
      "inclination_deg": 53.1606,
      "raan_deg": 5.0159,
      "arg_perigee_deg": 88.5354,
      "mean_anomaly_deg": 184.6827,
      "mean_motion_rev_day": 15.31691325
    }
  ]
}